{
    "links": {
        "self": "http://www.neowsapp.com/rest/v1/neo/3751526?api_key=iIulBulltgU6a56xZRHN4H3l9WmuAYTsLGpBGhQ2"
    },
    "id": "3751526",
    "neo_reference_id": "3751526",
    "name": "(2016 GC207)",
    "designation": "2016 GC207",
    "nasa_jpl_url": "http://ssd.jpl.nasa.gov/sbdb.cgi?sstr=3751526",
    "absolute_magnitude_h": 26.7,
    "estimated_diameter": {
        "kilometers": {
            "estimated_diameter_min": 0.0121494041,
            "estimated_diameter_max": 0.0271668934
        },
        "meters": {
            "estimated_diameter_min": 12.14940408,
            "estimated_diameter_max": 27.1668934089
        },
        "miles": {
            "estimated_diameter_min": 0.0075492874,
            "estimated_diameter_max": 0.0168807197
        },
        "feet": {
            "estimated_diameter_min": 39.8602508817,
            "estimated_diameter_max": 89.1302305717
        }
    },
    "is_potentially_hazardous_asteroid": false,
    "close_approach_data": [
        {
            "close_approach_date": "2016-04-09",
            "close_approach_date_full": "2016-Apr-09 09:13",
            "epoch_date_close_approach": 1460193180000,
            "relative_velocity": {
                "kilometers_per_second": "8.2931410989",
                "kilometers_per_hour": "29855.307955997",
                "miles_per_hour": "18550.9273241027"
            },
            "miss_distance": {
                "astronomical": "0.0325606495",
                "lunar": "12.6660926555",
                "kilometers": "4871003.811016565",
                "miles": "3026701.418155997"
            },
            "orbiting_body": "Earth"
        }
    ],
    "orbital_data": {
        "orbit_id": "4",
        "orbit_determination_date": "2017-04-06 08:26:38",
        "first_observation_date": "2016-04-10",
        "last_observation_date": "2016-04-15",
        "data_arc_in_days": 5,
        "observations_used": 16,
        "orbit_uncertainty": "8",
        "minimum_orbit_intersection": ".0324925",
        "jupiter_tisserand_invariant": "3.030",
        "epoch_osculation": "2457489.5",
        "eccentricity": ".6243471501000522",
        "semi_major_axis": "2.734727381100057",
        "inclination": "5.314402681117854",
        "ascending_node_longitude": "28.53140059138591",
        "orbital_period": "1651.845731143093",
        "perihelion_distance": "1.027308134409657",
        "perihelion_argument": "163.4478594647851",
        "aphelion_distance": "4.442146627790456",
        "perihelion_time": "2457481.435130417713",
        "mean_anomaly": "1.757641766954939",
        "mean_motion": ".2179380272701837",
        "equinox": "J2000",
        "orbit_class": {
            "orbit_class_type": "AMO",
            "orbit_class_description": "Near-Earth asteroid orbits similar to that of 1221 Amor",
            "orbit_class_range": "1.017 AU < q (perihelion) < 1.3 AU"
        }
    },
    "is_sentry_object": false
}